NORAD_CAT_ID,OBJECT_NAME,OBJECT_TYPE,EPOCH,MEAN_MOTION,ECCENTRICITY,INCLINATION,RA_OF_ASC_NODE,ARG_OF_PERICENTER,MEAN_ANOMALY,BSTAR,MEAN_MOTION_DOT,MEAN_MOTION_DDOT,TLE_LINE0,TLE_LINE1,TLE_LINE2,SEMIMAJOR_AXIS,PERIOD,APOGEE,PERIGEE,DECAYED
55951.0,STARLINK-5908,PAYLOAD,2023-05-04 04:35:13,15.69920816,0.0002746,70.0026,47.7305,273.6416,86.4466,7.7363e-06,7.18e-06,0.0,0 STARLINK-5908,1 55951U 23037AP  23124.19112435  .00000718  00000-0  77363-5 0  9995,2 55951  70.0026  47.7305 0002746 273.6416  86.4466 15.69920816  7970,6737.261,91.724,360.976,357.275,0.0
55951.0,STARLINK-5908,PAYLOAD,2023-05-04 21:24:29,15.69930393,0.0003272,70.0037,45.7625,255.3213,104.762,3.495e-05,3.993e-05,0.0,0 STARLINK-5908,1 55951U 23037AP  23124.89200283  .00003993  00000-0  34950-4 0  9993,2 55951  70.0037  45.7625 0003272 255.3213 104.7620 15.69930393  8082,6737.233,91.724,361.303,356.894,0.0
55951.0,STARLINK-5908,PAYLOAD,2023-05-05 20:20:45,15.69926368,0.000373,70.0035,43.0748,270.5669,89.5099,2.0601e-05,2.265e-05,0.0,0 STARLINK-5908,1 55951U 23037AP  23125.84775409  .00002265  00000-0  20601-4 0  9995,2 55951  70.0035  43.0748 0003730 270.5669  89.5099 15.69926368  7895,6737.245,91.724,361.623,356.597,0.0
55951.0,STARLINK-5908,PAYLOAD,2023-05-05 21:52:31,15.69927227,0.0003667,70.0021,42.8935,269.0368,91.0407,1.3052e-05,1.357e-05,0.0,0 STARLINK-5908,1 55951U 23037AP  23125.91147003  .00001357  00000-0  13052-4 0  9999,2 55951  70.0021  42.8935 0003667 269.0368  91.0407 15.69927227  8249,6737.242,91.724,361.578,356.637,0.0
55951.0,STARLINK-5908,PAYLOAD,2023-05-06 03:59:33,15.69868132,0.0004124,70.002,42.1792,271.6999,88.3724,-9.1144e-05,-0.00011134,0.0,0 STARLINK-5908,1 55951U 23037AP  23126.16636367 -.00011134  00000-0 -91144-4 0  9997,2 55951  70.0020  42.1792 0004124 271.6999  88.3724 15.69868132  8284,6737.411,91.727,362.055,356.498,0.0
55951.0,STARLINK-5908,PAYLOAD,2023-05-06 20:48:47,15.69936672,0.0003949,70.0026,40.2085,276.5403,83.5343,3.5565e-05,4.068e-05,0.0,0 STARLINK-5908,1 55951U 23037AP  23126.86721458  .00004068  00000-0  35565-4 0  9991,2 55951  70.0026  40.2085 0003949 276.5403  83.5343 15.69936672  8393,6737.215,91.723,361.741,356.42,0.0
55951.0,STARLINK-5908,PAYLOAD,2023-05-07 04:27:34,15.69912249,0.0003627,70.0011,39.3106,269.1652,90.9128,-1.4859e-05,-1.998e-05,0.0,0 STARLINK-5908,1 55951U 23037AP  23127.18581055 -.00001998  00000-0 -14859-4 0  9998,2 55951  70.0011  39.3106 0003627 269.1652  90.9128 15.69912249  8440,6737.285,91.725,361.594,356.706,0.0
55951.0,STARLINK-5908,PAYLOAD,2023-05-07 21:16:49,15.69926201,0.0004299,70.0012,37.3418,274.9399,85.1306,1.0976e-05,1.107e-05,0.0,0 STARLINK-5908,1 55951U 23037AP  23127.88668881  .00001107  00000-0  10976-4 0  9994,2 55951  70.0012  37.3418 0004299 274.9399  85.1306 15.69926201  8552,6737.245,91.724,362.006,356.214,0.0
55951.0,STARLINK-5908,PAYLOAD,2023-05-08 20:13:07,15.69926531,0.0003183,70.0028,34.6566,265.0471,95.0361,2.2163e-05,2.453e-05,0.0,0 STARLINK-5908,1 55951U 23037AP  23128.84244222  .00002453  00000-0  22163-4 0  9996,2 55951  70.0028  34.6566 0003183 265.0471  95.0361 15.69926531  8362,6737.244,91.724,361.254,356.965,0.0
55951.0,STARLINK-5908,PAYLOAD,2023-05-09 03:51:52,15.69935203,0.0003904,70.0018,33.7598,268.5673,91.5075,3.4301e-05,3.916e-05,0.0,0 STARLINK-5908,1 55951U 23037AP  23129.16101970  .00003916  00000-0  34301-4 0  9996,2 55951  70.0018  33.7598 0003904 268.5673  91.5075 15.69935203  8751,6737.219,91.724,361.715,356.454,0.0
55951.0,STARLINK-5908,PAYLOAD,2023-05-10 02:48:09,15.69932872,0.0003195,70.0017,31.0715,259.0116,101.072,6.0538e-05,7.075e-05,0.0,0 STARLINK-5908,1 55951U 23037AP  23130.11677750  .00007075  00000-0  60538-4 0  9998,2 55951  70.0017  31.0715 0003195 259.0116 101.0720 15.69932872  8563,6737.226,91.724,361.244,356.939,0.0
55951.0,STARLINK-5908,PAYLOAD,2023-05-10 19:37:25,15.69941253,0.0003288,70.0021,29.1021,265.9434,94.1386,6.9972e-05,8.215e-05,0.0,0 STARLINK-5908,1 55951U 23037AP  23130.81765853  .00008215  00000-0  69972-4 0  9995,2 55951  70.0021  29.1021 0003288 265.9434  94.1386 15.69941253  8673,6737.202,91.723,361.282,356.852,0.0
55951.0,STARLINK-5908,PAYLOAD,2023-05-11 01:44:26,15.69938911,0.0003262,70.002,28.3848,262.7902,97.2923,5.463e-05,6.365e-05,0.0,0 STARLINK-5908,1 55951U 23037AP  23131.07252373  .00006365  00000-0  54630-4 0  9991,2 55951  70.0020  28.3848 0003262 262.7902  97.2923 15.69938911  9058,6737.209,91.723,361.271,356.876,0.0
55951.0,STARLINK-5908,PAYLOAD,2023-05-11 03:16:11,15.69934528,0.0003674,69.9991,28.2025,266.8483,93.2292,3.5433e-05,4.052e-05,0.0,0 STARLINK-5908,1 55951U 23037AP  23131.13623961  .00004052  00000-0  35433-4 0  9994,2 55951  69.9991  28.2025 0003674 266.8483  93.2292 15.69934528  8722,6737.221,91.724,361.562,356.611,0.0
55951.0,STARLINK-5908,PAYLOAD,2023-05-11 23:08:57,15.69944938,0.0003835,70.0019,25.877,268.2634,91.8122,9.3609e-05,0.00011068,0.0,0 STARLINK-5908,1 55951U 23037AP  23131.96455766  .00011068  00000-0  93609-4 0  9995,2 55951  70.0019  25.8770 0003835 268.2634  91.8122 15.69944938  9193,6737.192,91.723,361.64,356.473,0.0
55951.0,STARLINK-5908,PAYLOAD,2023-05-12 02:12:27,15.6993814,0.0004099,69.9992,25.5166,266.8678,93.2048,4.1264e-05,4.755e-05,0.0,0 STARLINK-5908,1 55951U 23037AP  23132.09198882  .00004755  00000-0  41264-4 0  9998,2 55951  69.9992  25.5166 0004099 266.8678  93.2048 15.69938140  8876,6737.211,91.723,361.838,356.314,0.0
55951.0,STARLINK-5908,PAYLOAD,2023-05-12 19:01:44,15.69925291,0.000342,70.0007,23.5469,264.2124,95.8682,2.253e-05,2.497e-05,0.0,0 STARLINK-5908,1 55951U 23037AP  23132.79288006  .00002497  00000-0  22530-4 0  9999,2 55951  70.0007  23.5469 0003420 264.2124  95.8682 15.69925291  9321,6737.248,91.724,361.417,356.809,0.0
55951.0,STARLINK-5908,PAYLOAD,2023-05-13 02:40:30,15.69932809,0.0003186,70.0017,22.6531,265.2065,94.8767,4.6777e-05,5.417e-05,0.0,0 STARLINK-5908,1 55951U 23037AP  23133.11146145  .00005417  00000-0  46777-4 0  9997,2 55951  70.0017  22.6531 0003186 265.2065  94.8767 15.69932809  9030,6737.226,91.724,361.238,356.945,0.0
55951.0,STARLINK-5908,PAYLOAD,2023-05-13 19:29:47,15.69922413,0.0003236,70.0027,20.6844,258.8904,101.1928,-1.6563e-06,-4.12e-06,0.0,0 STARLINK-5908,1 55951U 23037AP  23133.81234976 -.00000412  00000-0 -16563-5 0  9997,2 55951  70.0027  20.6844 0003236 258.8904 101.1928 15.69922413  9145,6737.256,91.724,361.301,356.941,0.0
55951.0,STARLINK-5908,PAYLOAD,2023-05-14 01:36:47,15.69934533,0.0003485,70.0007,19.9642,265.4212,94.6586,4.9452e-05,5.74e-05,0.0,0 STARLINK-5908,1 55951U 23037AP  23134.06721366  .00005740  00000-0  49452-4 0  9998,2 55951  70.0007  19.9642 0003485 265.4212  94.6586 15.69934533  9526,6737.221,91.724,361.434,356.738,0.0
55951.0,STARLINK-5908,PAYLOAD,2023-05-14 19:57:50,15.69882897,0.0002992,70.0027,17.8158,256.742,103.3443,-9.1435e-05,-0.00011172,0.0,0 STARLINK-5908,1 55951U 23037AP  23134.83183333 -.00011172  00000-0 -91435-4 0  9995,2 55951  70.0027  17.8158 0002992 256.7420 103.3443 15.69882897  9304,6737.369,91.727,361.25,357.218,0.0
55951.0,STARLINK-5908,PAYLOAD,2023-05-15 00:33:06,15.69893846,0.0002828,70.0029,17.281,248.7321,111.3573,-4.6722e-05,-5.819e-05,0.0,0 STARLINK-5908,1 55951U 23037AP  23135.02298847 -.00005819  00000-0 -46722-4 0  9994,2 55951  70.0029  17.2810 0002828 248.7321 111.3573 15.69893846  9673,6737.338,91.726,361.108,357.297,0.0
55951.0,STARLINK-5908,PAYLOAD,2023-05-15 09:43:36,15.69924508,0.000351,70.0028,16.2033,260.2114,99.8686,5.9966e-05,7.004e-05,0.0,0 STARLINK-5908,1 55951U 23037AP  23135.40527870  .00007004  00000-0  59966-4 0  9997,2 55951  70.0028  16.2033 0003510 260.2114  99.8686 15.69924508  9738,6737.25,91.724,361.48,356.75,0.0
55951.0,STARLINK-5908,PAYLOAD,2023-05-15 17:22:20,15.69960151,0.0003158,70.0006,15.3064,260.4311,99.6528,0.00014637,0.00017449,0.0,0 STARLINK-5908,1 55951U 23037AP  23135.72385007  .00017449  00000-0  14637-3 0  9995,2 55951  70.0006  15.3064 0003158 260.4311  99.6528 15.69960151  9789,6737.148,91.722,361.141,356.885,0.0
55951.0,STARLINK-5908,PAYLOAD,2023-05-16 01:00:54,15.7024922,0.0004663,70.0019,14.4103,258.2912,101.776,0.00086693,0.00106821,0.0,0 STARLINK-5908,1 55951U 23037AP  23136.04230021  .00106821  00000-0  86693-3 0  9990,2 55951  70.0019  14.4103 0004663 258.2912 101.7760 15.70249220  9839,6736.321,91.705,361.327,355.045,0.0
55951.0,STARLINK-5908,PAYLOAD,2023-05-16 22:25:39,15.69919012,0.0001976,70.0039,11.9072,233.4354,126.666,-1.6446e-05,-2.188e-05,0.0,0 STARLINK-5908,1 55951U 23037AP  23136.93447950 -.00002188  00000-0 -16446-4 0  9992,2 55951  70.0039  11.9072 0001976 233.4354 126.6660 15.69919012  9978,6737.266,91.724,360.462,357.799,0.0
55951.0,STARLINK-5908,PAYLOAD,2023-05-17 18:18:24,15.69946861,0.000309,70.0018,9.58,251.0556,109.0305,3.8507e-05,4.424e-05,0.0,0 STARLINK-5908,1 55951U 23037AP  23137.76278278  .00004424  00000-0  38507-4 0  9994,2 55951  70.0018   9.5800 0003090 251.0556 109.0305 15.69946861 10106,6737.186,91.723,361.133,356.969,0.0
55951.0,STARLINK-5908,PAYLOAD,2023-05-18 00:25:24,15.69937069,0.000373,70.0,8.858,267.1946,92.8823,1.6506e-05,1.773e-05,0.0,0 STARLINK-5908,1 55951U 23037AP  23138.01764925  .00001773  00000-0  16506-4 0  9991,2 55951  70.0000   8.8580 0003730 267.1946  92.8823 15.69937069 10144,6737.214,91.723,361.592,356.566,0.0
55951.0,STARLINK-5908,PAYLOAD,2023-05-18 14:11:11,15.6993181,0.0003497,70.0005,7.2469,258.2013,101.879,1.5588e-05,1.663e-05,0.0,0 STARLINK-5908,1 55951U 23037AP  23138.59110252  .00001663  00000-0  15588-4 0  9999,2 55951  70.0005   7.2469 0003497 258.2013 101.8790 15.69931810  9896,6737.229,91.724,361.45,356.738,0.0
55951.0,STARLINK-5908,PAYLOAD,2023-05-19 19:14:28,15.69926984,0.0003374,69.9999,3.8414,267.478,92.6029,-2.2604e-06,-4.85e-06,0.0,0 STARLINK-5908,1 55951U 23037AP  23139.80171969 -.00000485  00000-0 -22604-5 0  9997,2 55951  69.9999   3.8414 0003374 267.4780  92.6029 15.69926984 10085,6737.243,91.724,361.381,356.835,0.0
